NORAD_CAT_ID,OBJECT_NAME,OBJECT_TYPE,EPOCH,MEAN_MOTION,ECCENTRICITY,INCLINATION,RA_OF_ASC_NODE,ARG_OF_PERICENTER,MEAN_ANOMALY,BSTAR,MEAN_MOTION_DOT,MEAN_MOTION_DDOT,TLE_LINE0,TLE_LINE1,TLE_LINE2,SEMIMAJOR_AXIS,PERIOD,APOGEE,PERIGEE,DECAYED
53283.0,STARLINK-4175,PAYLOAD,2022-11-04 06:27:52,15.08859194,0.0001751,53.2181,267.2707,56.5573,303.5586,0.00012697,1.734e-05,0.0,0 STARLINK-4175,1 53283U 22086AT  22308.26935320  .00001734  00000-0  12697-3 0  9997,2 53283  53.2181 267.2707 0001751  56.5573 303.5586 15.08859194 16804,6917.821999999999,95.436,540.898,538.475,0.0
53283.0,STARLINK-4175,PAYLOAD,2022-11-04 14:24:48,15.08846302,0.0001696999999999,53.2171,265.7825,54.2746,305.8404,0.00015335,2.154e-05,0.0,0 STARLINK-4175,1 53283U 22086AT  22308.60055896  .00002154  00000-0  15335-3 0  9995,2 53283  53.2171 265.7825 0001697  54.2746 305.8404 15.08846302 16680,6917.861,95.437,540.9,538.552,0.0
53283.0,STARLINK-4175,PAYLOAD,2022-11-04 20:46:21,15.08843411,0.0002397,53.2168,264.594,55.4836,304.6382,0.00016912,2.405e-05,0.0,0 STARLINK-4175,1 53283U 22086AT  22308.86552240  .00002405  00000-0  16912-3 0  9999,2 53283  53.2168 264.5940 0002397  55.4836 304.6382 15.08843411 16895,6917.87,95.437,541.393,538.077,0.0
53283.0,STARLINK-4175,PAYLOAD,2022-11-05 03:07:54,15.08831152,0.0001909,53.2188,263.4057,53.084,307.0327,6.2782e-05,7.11e-06,0.0,0 STARLINK-4175,1 53283U 22086AT  22309.13049267  .00000711  00000-0  62782-4 0  9995,2 53283  53.2188 263.4057 0001909  53.0840 307.0327 15.08831152 16931,6917.906999999997,95.438,541.0930000000002,538.452,0.0
53283.0,STARLINK-4175,PAYLOAD,2022-11-05 14:15:36,15.08837573,0.0002029,53.2196,261.3253,53.375,306.7428,-9.3265e-05,-1.772e-05,0.0,0 STARLINK-4175,1 53283U 22086AT  22309.59417370 -.00001772  00000-0 -93265-4 0  9999,2 53283  53.2196 261.3253 0002029  53.3750 306.7428 15.08837573 17002,6917.888000000001,95.438,541.156,538.349,0.0
53283.0,STARLINK-4175,PAYLOAD,2022-11-06 04:34:03,15.08848321,0.0001807,53.2181,258.6507,44.725,315.3888,-6.539399999999999e-05,-1.329e-05,0.0,0 STARLINK-4175,1 53283U 22086AT  22310.19032320 -.00001329  00000-0 -65394-4 0  9995,2 53283  53.2181 258.6507 0001807  44.7250 315.3888 15.08848321 16928,6917.855,95.437,540.97,538.47,0.0
53283.0,STARLINK-4175,PAYLOAD,2022-11-06 06:09:27,15.08848384,0.0001792,53.2181,258.3531,45.9158,314.1981,-6.2887e-05,-1.289e-05,0.0,0 STARLINK-4175,1 53283U 22086AT  22310.25656276 -.00001289  00000-0 -62887-4 0  9993,2 53283  53.2181 258.3531 0001792  45.9158 314.1981 15.08848384 17106,6917.855,95.437,540.9590000000002,538.48,0.0
53283.0,STARLINK-4175,PAYLOAD,2022-11-07 02:49:28,15.0882902,0.0001855,53.2181,254.4858,49.8732,310.2422,1.5235e-05,-4.6e-07,0.0,0 STARLINK-4175,1 53283U 22086AT  22311.11769343 -.00000046  00000-0  15235-4 0  9993,2 53283  53.2181 254.4858 0001855  49.8732 310.2422 15.08829020 17064,6917.9140000000025,95.438,541.062,538.496,0.0
53283.0,STARLINK-4175,PAYLOAD,2022-11-07 20:18:43,15.08828237,0.0001431999999999,53.2185,251.2152,35.6606,324.4481,-6.7714e-05,-1.365e-05,0.0,0 STARLINK-4175,1 53283U 22086AT  22311.84634129 -.00001365  00000-0 -67714-4 0  9991,2 53283  53.2185 251.2152 0001432  35.6606 324.4481 15.08828237 17346,6917.916,95.438,540.7719999999998,538.7909999999998,0.0
53283.0,STARLINK-4175,PAYLOAD,2022-11-08 02:40:14,15.08852101,0.0001663,53.2187,250.0231,54.2306,305.8841,0.0001233,1.675e-05,0.0,0 STARLINK-4175,1 53283U 22086AT  22312.11128064  .00001675  00000-0  12330-3 0  9993,2 53283  53.2187 250.0231 0001663  54.2306 305.8841 15.08852101 17219,6917.843000000003,95.437,540.859,538.558,0.0
53283.0,STARLINK-4175,PAYLOAD,2022-11-08 20:09:28,15.08853669,0.0001628,53.2186,246.7521,55.023,305.0915,0.00025188,3.724e-05,0.0,0 STARLINK-4175,1 53283U 22086AT  22312.83991053  .00003724  00000-0  25188-3 0  9990,2 53283  53.2186 246.7521 0001628  55.0230 305.0915 15.08853669 17492,6917.839,95.437,540.83,538.577,0.0
53283.0,STARLINK-4175,PAYLOAD,2022-11-09 12:03:19,15.08879969,0.000168,53.2177,243.7801,50.8181,309.296,0.00055747,8.605e-05,0.0,0 STARLINK-4175,1 53283U 22086AT  22313.50230335  .00008605  00000-0  55747-3 0  9991,2 53283  53.2177 243.7801 0001680  50.8181 309.2960 15.08879969 17594,6917.7580000000025,95.435,540.785,538.461,0.0
53283.0,STARLINK-4175,PAYLOAD,2022-11-09 20:00:15,15.08849458,0.000143,53.2182,242.2897,66.9493,293.165,-0.00035475,-5.931e-05,0.0,0 STARLINK-4175,1 53283U 22086AT  22313.83351195 -.00005931  00000-0 -35475-3 0  9992,2 53283  53.2182 242.2897 0001430  66.9493 293.1650 15.08849458 17470,6917.851,95.437,540.706,538.727,0.0
53283.0,STARLINK-4175,PAYLOAD,2022-11-10 02:21:48,15.08824931,0.0001494,53.2186,241.1042,50.239,309.8733,-0.00072098,-0.00011739,0.0,0 STARLINK-4175,1 53283U 22086AT  22314.09847834 -.00011739  00000-0 -72098-3 0  9996,2 53283  53.2186 241.1042 0001494  50.2390 309.8733 15.08824931 17517,6917.926,95.439,540.825,538.758,0.0
53283.0,STARLINK-4175,PAYLOAD,2022-11-10 11:54:07,15.08823305,0.0001477,53.2184,239.3202,47.0624,313.0491,-0.00023623,-4.044e-05,0.0,0 STARLINK-4175,1 53283U 22086AT  22314.49592377 -.00004044  00000-0 -23623-3 0  9990,2 53283  53.2184 239.3202 0001477  47.0624 313.0491 15.08823305 17744,6917.931,95.439,540.818,538.775,0.0
53283.0,STARLINK-4175,PAYLOAD,2022-11-11 03:48:00,15.08814255,0.0001525,53.2179,236.3465,46.417,313.6948,0.00025883,3.831e-05,0.0,0 STARLINK-4175,1 53283U 22086AT  22315.15833975  .00003831  00000-0  25883-3 0  9997,2 53283  53.2179 236.3465 0001525  46.4170 313.6948 15.08814255 17678,6917.959,95.439,540.879,538.769,0.0
53283.0,STARLINK-4175,PAYLOAD,2022-11-11 11:44:56,15.08824714,0.0001547,53.2177,234.8598,48.059,312.0534,0.00050927,7.823e-05,0.0,0 STARLINK-4175,1 53283U 22086AT  22315.48954285  .00007823  00000-0  50927-3 0  9993,2 53283  53.2177 234.8598 0001547  48.0590 312.0534 15.08824714 17893,6917.927,95.439,540.862,538.722,0.0
53283.0,STARLINK-4175,PAYLOAD,2022-11-12 03:38:47,15.08851305,0.0001506999999999,53.217,231.8859,48.7269,311.3852,0.0010288,0.00016128,0.0,0 STARLINK-4175,1 53283U 22086AT  22316.15194153  .00016128  00000-0  10288-2 0  9991,2 53283  53.2170 231.8859 0001507  48.7269 311.3852 15.08851305 17823,6917.846,95.437,540.753,538.668,0.0
53283.0,STARLINK-4175,PAYLOAD,2022-11-12 11:35:43,15.08851152,0.00015,53.2165,230.3989,49.9383,310.1740000000001,0.00060764,9.399e-05,0.0,0 STARLINK-4175,1 53283U 22086AT  22316.48314013  .00009399  00000-0  60764-3 0  9993,2 53283  53.2165 230.3989 0001500  49.9383 310.1740 15.08851152 18046,6917.846,95.437,540.749,538.674,0.0
53283.0,STARLINK-4175,PAYLOAD,2022-11-12 17:57:15,15.08855006,0.000152,53.2165,229.2095,50.9424,309.1703,0.00049385,7.584e-05,0.0,0 STARLINK-4175,1 53283U 22086AT  22316.74809742  .00007584  00000-0  49385-3 0  9990,2 53283  53.2165 229.2095 0001520  50.9424 309.1703 15.08855006 17915,6917.835,95.437,540.751,538.648,0.0
53283.0,STARLINK-4175,PAYLOAD,2022-11-12 19:32:38,15.08860508,0.0001665999999999,53.2158,228.9123,52.3687,307.7457,0.00067976,0.00010553,0.0,0 STARLINK-4175,1 53283U 22086AT  22316.81433562  .00010553  00000-0  67976-3 0  9997,2 53283  53.2158 228.9123 0001666  52.3687 307.7457 15.08860508 18096,6917.818,95.436,540.835,538.53,0.0
53283.0,STARLINK-4175,PAYLOAD,2022-11-13 11:26:30,15.0884202,0.0001730999999999,53.2169,225.9396,54.3315,305.7839,-4.0416e-05,-9.31e-06,0.0,0 STARLINK-4175,1 53283U 22086AT  22317.47673664 -.00000931  00000-0 -40416-4 0  9991,2 53283  53.2169 225.9396 0001731  54.3315 305.7839 15.08842020 18024,6917.874,95.437,540.937,538.5419999999998,0.0
53283.0,STARLINK-4175,PAYLOAD,2022-11-14 00:09:36,15.08821584,0.0002298,53.2157,223.5611,65.6298,294.4934,-0.00017244,-3.03e-05,0.0,0 STARLINK-4175,1 53283U 22086AT  22318.00666744 -.00003030  00000-0 -17244-3 0  9997,2 53283  53.2157 223.5611 0002298  65.6298 294.4934 15.08821584 18100,6917.937,95.439,541.391,538.212,0.0
53283.0,STARLINK-4175,PAYLOAD,2022-11-14 11:17:18,15.088250699999998,0.0001866,53.2166,221.4796,53.512,306.6044,0.0002368,3.481e-05,0.0,0 STARLINK-4175,1 53283U 22086AT  22318.47035425  .00003481  00000-0  23680-3 0  9993,2 53283  53.2166 221.4796 0001866  53.5120 306.6044 15.08825070 18349,6917.926,95.438,541.082,538.5,0.0
53283.0,STARLINK-4175,PAYLOAD,2022-11-15 00:00:24,15.08835101,0.0001926,53.2166,219.1001,56.0578,304.0597,0.00070955,0.00011021,0.0,0 STARLINK-4175,1 53283U 22086AT  22319.00027850  .00011021  00000-0  70955-3 0  9992,2 53283  53.2166 219.1001 0001926  56.0578 304.0597 15.08835101 18255,6917.895,95.438,541.0930000000002,538.428,0.0
53283.0,STARLINK-4175,PAYLOAD,2022-11-15 20:40:24,15.08849565,0.0001974,53.2167,215.234,57.4392,302.6790000000001,0.00050107,7.698e-05,0.0,0 STARLINK-4175,1 53283U 22086AT  22319.86139584  .00007698  00000-0  50107-3 0  9996,2 53283  53.2167 215.2340 0001974  57.4392 302.6790 15.08849565 18552,6917.851,95.437,541.082,538.351,0.0
53283.0,STARLINK-4175,PAYLOAD,2022-11-16 03:01:56,15.08853687,0.0001976,53.2169,214.0451,56.6621,303.456,0.00048143,7.385e-05,0.0,0 STARLINK-4175,1 53283U 22086AT  22320.12635381  .00007385  00000-0  48143-3 0  9993,2 53283  53.2169 214.0451 0001976  56.6621 303.4560 15.08853687 18422,6917.839,95.437,541.071,538.337,0.0
53283.0,STARLINK-4175,PAYLOAD,2022-11-16 15:45:01,15.08853328,0.0002018,53.217,211.666,58.4761,301.6428,0.00029217,4.366e-05,0.0,0 STARLINK-4175,1 53283U 22086AT  22320.65627017  .00004366  00000-0  29217-3 0  9995,2 53283  53.2170 211.6660 0002018  58.4761 301.6428 15.08853328 18674,6917.84,95.437,541.101,538.309,0.0
53283.0,STARLINK-4175,PAYLOAD,2022-11-16 23:41:57,15.0885162,0.0002004,53.2172,210.1797,57.4099,302.7087,0.00017361,2.477e-05,0.0,0 STARLINK-4175,1 53283U 22086AT  22320.98746849  .00002477  00000-0  17361-3 0  9994,2 53283  53.2172 210.1797 0002004  57.4099 302.7087 15.08851620 18552,6917.845,95.437,541.096,538.3240000000002,0.0
